{
  "type": "FeatureCollection",
  "features": [
    {
      "type": "Feature",
      "properties": {
        "norad_id": 64903,
        "name": "CO3D 1",
        "group": "resource",
        "lat": 75.90947167458488,
        "lon": 40.1124351986072,
        "alt_km": 497.42531321346723,
        "timestamp": "2025-12-21T07:34:34.198518+00:00",
        "meta_object_name": "CO3D 1",
        "meta_object_id": "2025-156E",
        "meta_epoch": "2025-12-20T21:45:21.249216",
        "meta_mean_motion": 15.20200953,
        "meta_eccentricity": 9.1e-05,
        "meta_inclination": 97.4343,
        "meta_ra_of_asc_node": 71.0557,
        "meta_arg_of_pericenter": 78.3443,
        "meta_mean_anomaly": 281.7894,
        "meta_ephemeris_type": 0,
        "meta_classification_type": "U",
        "meta_norad_cat_id": 64903,
        "meta_element_set_no": 999,
        "meta_rev_at_epoch": 2244,
        "meta_bstar": 0.00019236882,
        "meta_mean_motion_dot": 4.099e-05,
        "meta_mean_motion_ddot": 0,
        "tle_line1": "1 64903U 25156E   25354.90649594  .00004099  00000+0  19237-3 0  9992",
        "tle_line2": "2 64903  97.4343  71.0557 0000910  78.3443 281.7894 15.20200953 22446"
      },
      "geometry": {
        "type": "Point",
        "coordinates": [
          40.1124351986072,
          75.90947167458488
        ]
      }
    },
    {
      "type": "Feature",
      "properties": {
        "norad_id": 66514,
        "name": "SENTINEL-6B",
        "group": "resource",
        "lat": 48.04738836494849,
        "lon": 174.2587359224845,
        "alt_km": 1335.4556361957466,
        "timestamp": "2025-12-21T07:34:34.198527+00:00",
        "meta_object_name": "SENTINEL-6B",
        "meta_object_id": "2025-264A",
        "meta_epoch": "2025-12-12T06:01:21.428544",
        "meta_mean_motion": 12.81479575,
        "meta_eccentricity": 0.00078482,
        "meta_inclination": 66.0385,
        "meta_ra_of_asc_node": 163.4531,
        "meta_arg_of_pericenter": 270.1375,
        "meta_mean_anomaly": 89.8741,
        "meta_ephemeris_type": 0,
        "meta_classification_type": "U",
        "meta_norad_cat_id": 66514,
        "meta_element_set_no": 999,
        "meta_rev_at_epoch": 322,
        "meta_bstar": 0.00018194989,
        "meta_mean_motion_dot": -1.9e-07,
        "meta_mean_motion_ddot": 0,
        "tle_line1": "1 66514U 25264A   25346.25094246 -.00000019  00000+0  18195-3 0  9990",
        "tle_line2": "2 66514  66.0385 163.4531 0007848 270.1375  89.8741 12.81479575  3220"
      },
      "geometry": {
        "type": "Point",
        "coordinates": [
          174.2587359224845,
          48.04738836494849
        ]
      }
    }
  ]
}